OBJECT_NAME,OBJECT_ID,EPOCH,MEAN_MOTION,ECCENTRICITY,INCLINATION,RA_OF_ASC_NODE,ARG_OF_PERICENTER,MEAN_ANOMALY,EPHEMERIS_TYPE,CLASSIFICATION_TYPE,NORAD_CAT_ID,ELEMENT_SET_NO,REV_AT_EPOCH,BSTAR,MEAN_MOTION_DOT,MEAN_MOTION_DDOT
STARLINK-37004,2026-042W,2026-03-21T13:35:41.945280,15.81017386,.00008502,53.1577,135.0800,75.0489,285.0628,0,U,68089,999,396,.11299143E-2,.229874E-2,0
STARLINK-36320,2026-042X,2026-03-21T12:00:00.999648,15.75335373,.00007529,53.1586,135.4578,110.1362,209.5089,0,U,68090,999,394,-.14324369E-2,-.215609E-2,0
STARLINK-36324,2026-042Y,2026-03-21T12:00:00.999648,15.75327995,.00015543,53.1584,135.5150,115.9756,176.0487,0,U,68091,999,394,-.11622718E-2,-.175844E-2,0
STARLINK-36896,2026-042Z,2026-03-21T12:00:00.999648,15.75775858,.00009336,53.1591,135.4061,79.5445,265.4584,0,U,68092,999,395,-.54831232E-2,-.785502E-2,0
STARLINK-36251,2026-042AA,2026-03-21T13:30:19.890144,15.80916498,.00013856,53.1579,135.0543,56.1192,303.9962,0,U,68093,999,395,.10708607E-2,.21647E-2,0
STARLINK-36787,2026-042AB,2026-03-21T12:00:00.999648,15.75174903,.00008164,53.1587,135.4615,84.8624,232.8387,0,U,68094,999,394,.56884455E-3,.87215E-3,0
STARLINK-36790,2026-042AC,2026-03-21T13:31:24.566592,15.80921497,.00011785,53.1578,135.0591,84.1238,275.9919,0,U,68095,999,395,.11556009E-2,.234194E-2,0
STARLINK-36328,2026-042AD,2026-03-21T13:27:05.502240,15.80918833,.00013132,53.1579,135.0386,46.4429,313.6703,0,U,68096,999,395,.11502963E-2,.233056E-2,0
STARLINK-36853,2026-042AE,2026-03-21T13:29:15.118656,15.80908527,.00012207,53.1580,135.0491,80.3961,279.7200,0,U,68097,999,395,.95885215E-3,.193155E-2,0
GLOBAL-34,2026-043A,2026-03-21T01:58:41.281536,15.31646310,.00052518,42.0225,9.7335,359.2691,0.8138,0,U,68098,999,231,.38964071E-3,.11935E-3,0
STARLINK-37022,2026-044A,2026-03-21T12:00:00.999648,15.75690636,.00017041,97.2839,41.2177,92.5879,94.1772,0,U,68101,999,330,-.51315093E-2,-.719908E-2,0
STARLINK-37046,2026-044B,2026-03-21T12:00:00.999648,15.76227649,.00018076,97.2838,41.2195,97.4761,94.9428,0,U,68102,999,330,-.98730437E-2,-.1373091E-1,0
STARLINK-37018,2026-044C,2026-03-21T12:00:00.999648,15.77207200,.00019051,97.2841,41.2240,102.1157,97.1818,0,U,68103,999,325,-.131914E-1,-.1878058E-1,0
STARLINK-37041,2026-044D,2026-03-21T12:00:00.999648,15.76560734,.00017993,97.2840,41.2267,87.1805,118.9389,0,U,68104,999,325,-.11609597E-1,-.1604607E-1,0
STARLINK-37021,2026-044E,2026-03-21T12:00:00.999648,15.77453318,.00019658,97.2840,41.2283,97.3299,115.5244,0,U,68105,999,325,-.13343694E-1,-.1915213E-1,0
STARLINK-37024,2026-044F,2026-03-21T12:00:00.999648,15.77840043,.00019126,97.2838,41.2303,114.2196,103.8823,0,U,68106,999,325,-.13594095E-1,-.1975689E-1,0
STARLINK-37005,2026-044G,2026-03-21T12:00:00.999648,15.77161292,.00016768,97.2841,41.2247,96.3407,107.0550,0,U,68107,999,325,-.13585688E-1,-.1923095E-1,0
STARLINK-37017,2026-044H,2026-03-21T12:00:00.999648,15.77349664,.00020703,97.2839,41.2324,100.6476,120.4208,0,U,68108,999,325,-.1358288E-1,-.1937239E-1,0
STARLINK-36833,2026-044J,2026-03-21T12:00:00.999648,15.77238511,.00020827,97.2840,41.2354,115.0589,114.2017,0,U,68109,999,330,-.13332642E-1,-.1898033E-1,0
STARLINK-36830,2026-044K,2026-03-21T12:00:00.999648,15.77293352,.00018986,97.2841,41.2342,112.7132,112.4514,0,U,68110,999,330,-.13249884E-1,-.189163E-1,0
STARLINK-36791,2026-044L,2026-03-21T12:00:00.999648,15.78023311,.00015458,97.2839,41.2381,100.9386,134.7291,0,U,68111,999,325,-.13408239E-1,-.1965927E-1,0
STARLINK-36893,2026-044M,2026-03-21T12:00:00.999648,15.78372671,.00017354,97.2837,41.2391,98.9386,141.8185,0,U,68112,999,330,-.13090545E-1,-.1952222E-1,0
STARLINK-36937,2026-044N,2026-03-21T12:00:00.999648,15.77843121,.00018844,97.2842,41.2421,113.4522,134.6136,0,U,68113,999,325,-.13405869E-1,-.195224E-1,0
STARLINK-36229,2026-044P,2026-03-21T12:00:00.999648,15.78319130,.00017339,97.2839,41.2398,104.4587,140.4449,0,U,68114,999,330,-.13126118E-1,-.1952716E-1,0
STARLINK-36392,2026-044Q,2026-03-21T12:00:00.999648,15.78208863,.00020117,97.2841,41.2441,104.6939,148.5080,0,U,68115,999,330,-.13251367E-1,-.1960651E-1,0
STARLINK-36805,2026-044R,2026-03-21T12:00:00.999648,15.77734142,.00019225,97.2840,41.2450,106.3923,149.9189,0,U,68116,999,330,-.13480805E-1,-.1953419E-1,0
STARLINK-36844,2026-044S,2026-03-21T12:00:00.999648,15.78502222,.00016739,97.2840,41.2476,110.9664,151.4225,0,U,68117,999,325,-.12962109E-1,-.1945414E-1,0
STARLINK-36789,2026-044T,2026-03-21T12:00:00.999648,15.78032156,.00018341,97.2843,41.2493,105.1010,160.5245,0,U,68118,999,325,-.13286169E-1,-.1951416E-1,0
STARLINK-36850,2026-044U,2026-03-21T12:00:00.999648,15.77507195,.00016901,97.2846,41.2514,105.4241,163.2556,0,U,68119,999,325,-.12707269E-1,-.183897E-1,0
STARLINK-36868,2026-044V,2026-03-21T12:00:00.999648,15.78327578,.00017235,97.2844,41.2527,108.9033,165.9589,0,U,68120,999,325,-.13059744E-1,-.19448E-1,0
