STARLINK-37004          
1 68089U 26042W   26080.56645770  .00229874  00000+0  11299-2 0  9996
2 68089  53.1577 135.0800 0000850  75.0489 285.0628 15.81017386  3963
STARLINK-36320          
1 68090U 26042X   26080.50001157 -.00215609  00000+0 -14324-2 0  9992
2 68090  53.1586 135.4578 0000752 110.1362 209.5089 15.75335373  3945
STARLINK-36324          
1 68091U 26042Y   26080.50001157 -.00175844  00000+0 -11623-2 0  9998
2 68091  53.1584 135.5150 0001554 115.9756 176.0487 15.75327995  3943
STARLINK-36896          
1 68092U 26042Z   26080.50001157 -.00785502  00000+0 -54831-2 0  9995
2 68092  53.1591 135.4061 0000933  79.5445 265.4584 15.75775858  3959
STARLINK-36251          
1 68093U 26042AA  26080.56273021  .00216470  00000+0  10709-2 0  9990
2 68093  53.1579 135.0543 0001385  56.1192 303.9962 15.80916498  3950
STARLINK-36787          
1 68094U 26042AB  26080.50001157  .00087215  00000+0  56884-3 0  9992
2 68094  53.1587 135.4615 0000816  84.8624 232.8387 15.75174903  3941
STARLINK-36790          
1 68095U 26042AC  26080.56347878  .00234194  00000+0  11556-2 0  9998
2 68095  53.1578 135.0591 0001178  84.1238 275.9919 15.80921497  3951
STARLINK-36328          
1 68096U 26042AD  26080.56048035  .00233056  00000+0  11503-2 0  9990
2 68096  53.1579 135.0386 0001313  46.4429 313.6703 15.80918833  3950
STARLINK-36853          
1 68097U 26042AE  26080.56198054  .00193155  00000+0  95885-3 0  9999
2 68097  53.1580 135.0491 0001220  80.3961 279.7200 15.80908527  3958
GLOBAL-34               
1 68098U 26043A   26080.08242224  .00011935  00000+0  38964-3 0  9997
2 68098  42.0225   9.7335 0005251 359.2691   0.8138 15.31646310  2319
STARLINK-37022          
1 68101U 26044A   26080.50001157 -.00719908  00000+0 -51315-2 0  9999
2 68101  97.2839  41.2177 0001704  92.5879  94.1772 15.75690636  3304
STARLINK-37046          
1 68102U 26044B   26080.50001157 -.01373091  00000+0 -98730-2 0  9992
2 68102  97.2838  41.2195 0001807  97.4761  94.9428 15.76227649  3309
STARLINK-37018          
1 68103U 26044C   26080.50001157 -.01878058  00000+0 -13191-1 0  9993
2 68103  97.2841  41.2240 0001905 102.1157  97.1818 15.77207200  3251
STARLINK-37041          
1 68104U 26044D   26080.50001157 -.01604607  00000+0 -11610-1 0  9995
2 68104  97.2840  41.2267 0001799  87.1805 118.9389 15.76560734  3251
STARLINK-37021          
1 68105U 26044E   26080.50001157 -.01915213  00000+0 -13344-1 0  9990
2 68105  97.2840  41.2283 0001965  97.3299 115.5244 15.77453318  3258
STARLINK-37024          
1 68106U 26044F   26080.50001157 -.01975689  00000+0 -13594-1 0  9991
2 68106  97.2838  41.2303 0001912 114.2196 103.8823 15.77840043  3254
STARLINK-37005          
1 68107U 26044G   26080.50001157 -.01923095  00000+0 -13586-1 0  9997
2 68107  97.2841  41.2247 0001676  96.3407 107.0550 15.77161292  3253
STARLINK-37017          
1 68108U 26044H   26080.50001157 -.01937239  00000+0 -13583-1 0  9990
2 68108  97.2839  41.2324 0002070 100.6476 120.4208 15.77349664  3251
STARLINK-36833          
1 68109U 26044J   26080.50001157 -.01898033  00000+0 -13333-1 0  9992
2 68109  97.2840  41.2354 0002082 115.0589 114.2017 15.77238511  3308
STARLINK-36830          
1 68110U 26044K   26080.50001157 -.01891630  00000+0 -13250-1 0  9998
2 68110  97.2841  41.2342 0001898 112.7132 112.4514 15.77293352  3306
STARLINK-36791          
1 68111U 26044L   26080.50001157 -.01965927  00000+0 -13408-1 0  9995
2 68111  97.2839  41.2381 0001545 100.9386 134.7291 15.78023311  3256
STARLINK-36893          
1 68112U 26044M   26080.50001157 -.01952222  00000+0 -13091-1 0  9998
2 68112  97.2837  41.2391 0001735  98.9386 141.8185 15.78372671  3306
STARLINK-36937          
1 68113U 26044N   26080.50001157 -.01952240  00000+0 -13406-1 0  9999
2 68113  97.2842  41.2421 0001884 113.4522 134.6136 15.77843121  3259
STARLINK-36229          
1 68114U 26044P   26080.50001157 -.01952716  00000+0 -13126-1 0  9997
2 68114  97.2839  41.2398 0001733 104.4587 140.4449 15.78319130  3300
STARLINK-36392          
1 68115U 26044Q   26080.50001157 -.01960651  00000+0 -13251-1 0  9994
2 68115  97.2841  41.2441 0002011 104.6939 148.5080 15.78208863  3306
STARLINK-36805          
1 68116U 26044R   26080.50001157 -.01953419  00000+0 -13481-1 0  9994
2 68116  97.2840  41.2450 0001922 106.3923 149.9189 15.77734142  3306
STARLINK-36844          
1 68117U 26044S   26080.50001157 -.01945414  00000+0 -12962-1 0  9994
2 68117  97.2840  41.2476 0001673 110.9664 151.4225 15.78502222  3257
STARLINK-36789          
1 68118U 26044T   26080.50001157 -.01951416  00000+0 -13286-1 0  9994
2 68118  97.2843  41.2493 0001834 105.1010 160.5245 15.78032156  3257
STARLINK-36850          
1 68119U 26044U   26080.50001157 -.01838970  00000+0 -12707-1 0  9991
2 68119  97.2846  41.2514 0001690 105.4241 163.2556 15.77507195  3258
STARLINK-36868          
1 68120U 26044V   26080.50001157 -.01944800  00000+0 -13060-1 0  9996
2 68120  97.2844  41.2527 0001723 108.9033 165.9589 15.78327578  3257
